[{"OBJECT_NAME":"PISAT","OBJECT_ID":"2016-059B","EPOCH":"2026-03-09T23:04:32.673792","MEAN_MOTION":14.68774579,"ECCENTRICITY":0.00295599,"INCLINATION":97.8192,"RA_OF_ASC_NODE":73.6916,"ARG_OF_PERICENTER":159.8662,"MEAN_ANOMALY":200.3717,"EPHEMERIS_TYPE":0,"CLASSIFICATION_TYPE":"U","NORAD_CAT_ID":41784,"ELEMENT_SET_NO":999,"REV_AT_EPOCH":50517,"BSTAR":0.00024765748,"MEAN_MOTION_DOT":1.407e-5,"MEAN_MOTION_DDOT":0},{"OBJECT_NAME":"THOR DELTA 1 R\/B","OBJECT_ID":"1981-100C","EPOCH":"2026-03-09T17:16:14.855232","MEAN_MOTION":12.20113078,"ECCENTRICITY":0.13076159,"INCLINATION":99.9021,"RA_OF_ASC_NODE":315.82,"ARG_OF_PERICENTER":115.2104,"MEAN_ANOMALY":323.5406,"EPHEMERIS_TYPE":0,"CLASSIFICATION_TYPE":"U","NORAD_CAT_ID":12889,"ELEMENT_SET_NO":999,"REV_AT_EPOCH":96921,"BSTAR":0.00019212737,"MEAN_MOTION_DOT":3.67e-6,"MEAN_MOTION_DDOT":0}]
